NORAD_CAT_ID,OBJECT_NAME,OBJECT_TYPE,EPOCH,MEAN_MOTION,ECCENTRICITY,INCLINATION,RA_OF_ASC_NODE,ARG_OF_PERICENTER,MEAN_ANOMALY,BSTAR,MEAN_MOTION_DOT,MEAN_MOTION_DDOT,TLE_LINE0,TLE_LINE1,TLE_LINE2,SEMIMAJOR_AXIS,PERIOD,APOGEE,PERIGEE,DECAYED
52310.0,STARLINK-3688,PAYLOAD,2022-05-05 14:00:01,15.73259601,0.0001305,53.2151,305.9894,53.4661,168.55599999999995,-0.00090889,-0.00126597,0.0,0 STARLINK-3688,1 52310U 22041BB  22125.58334491 -.00126597  00000-0 -90889-3 0  9998,2 52310  53.2151 305.9894 0001305  53.4661 168.5560 15.73259601  3421,6727.725,91.53,350.468,348.712,0.0
52310.0,STARLINK-3688,PAYLOAD,2022-05-05 22:00:00,15.73118814,0.0001369,53.2148,304.3418,35.8008,275.1657,0.00075879,0.00106862,0.0,0 STARLINK-3688,1 52310U 22041BB  22125.91667824  .00106862  00000-0  75879-3 0  9997,2 52310  53.2148 304.3418 0001369  35.8008 275.1657 15.73118814  2893,6728.127,91.538,350.913,349.071,0.0
52310.0,STARLINK-3688,PAYLOAD,2022-05-06 06:00:00,15.73198374,0.0001395,53.2149,302.6902,49.5299,350.3777,-0.00013973,-0.00020182,0.0,0 STARLINK-3688,1 52310U 22041BB  22126.25001157 -.00020182  00000-0 -13973-3 0  9995,2 52310  53.2149 302.6902 0001395  49.5299 350.3777 15.73198374  3525,6727.9,91.533,350.70300000000015,348.826,0.0
52310.0,STARLINK-3688,PAYLOAD,2022-05-06 14:00:01,15.73222541,0.0001508,53.2151,301.0407,52.0047,76.8105,-8.9106e-05,-0.00013119,0.0,0 STARLINK-3688,1 52310U 22041BB  22126.58334491 -.00013119  00000-0 -89106-4 0  9995,2 52310  53.2151 301.0407 0001508  52.0047  76.8105 15.73222541  3009,6727.831,91.532,350.71,348.681,0.0
52310.0,STARLINK-3688,PAYLOAD,2022-05-06 20:00:01,15.73211486,0.0001595,53.2151,299.8052,41.3487,64.193,-4.0076e-05,-6.244e-05,0.0,0 STARLINK-3688,1 52310U 22041BB  22126.83334491 -.00006244  00000-0 -40076-4 0  9997,2 52310  53.2151 299.8052 0001595  41.3487  64.1930 15.73211486  3613,6727.861999999999,91.533,350.801,348.654,0.0
52310.0,STARLINK-3688,PAYLOAD,2022-05-07 14:00:01,15.73226167,0.0001558,53.2148,296.0926,44.4675,351.1612,-0.00034512,-0.00048831,0.0,0 STARLINK-3688,1 52310U 22041BB  22127.58334491 -.00048831  00000-0 -34512-3 0  9995,2 52310  53.2148 296.0926 0001558  44.4675 351.1612 15.73226167  3168,6727.821,91.532,350.7340000000001,348.63699999999994,0.0
52310.0,STARLINK-3688,PAYLOAD,2022-05-07 22:00:00,15.73138057,0.0001595999999999,53.2143,294.4447,33.5795,91.0002,0.00073038,0.00102875,0.0,0 STARLINK-3688,1 52310U 22041BB  22127.91667824  .00102875  00000-0  73038-3 0  9994,2 52310  53.2143 294.4447 0001596  33.5795  91.0002 15.73138057  3216,6728.071999999999,91.537,351.011,348.86300000000006,0.0
52310.0,STARLINK-3688,PAYLOAD,2022-05-08 04:00:00,15.73218965,0.0001431999999999,53.2144,293.2059,32.2792,68.9554,-0.00040995,-0.00057807,0.0,0 STARLINK-3688,1 52310U 22041BB  22128.16667824 -.00057807  00000-0 -40995-3 0  9994,2 52310  53.2144 293.2059 0001432  32.2792  68.9554 15.73218965  3824,6727.840999999999,91.532,350.67,348.74300000000005,0.0
52310.0,STARLINK-3688,PAYLOAD,2022-05-08 14:00:01,15.73196865,0.0001393,53.2146,291.1441,29.281,273.1016,-0.00019844,-0.00028372,0.0,0 STARLINK-3688,1 52310U 22041BB  22128.58334491 -.00028372  00000-0 -19844-3 0  9995,2 52310  53.2146 291.1441 0001393  29.2810 273.1016 15.73196865  3323,6727.904,91.533,350.706,348.832,0.0
52310.0,STARLINK-3688,PAYLOAD,2022-05-08 20:00:01,15.73174943,0.0001708,53.2146,289.9085,28.4663,250.621,6.8147e-05,8.944e-05,0.0,0 STARLINK-3688,1 52310U 22041BB  22128.83334491  .00008944  00000-0  68147-4 0  9995,2 52310  53.2146 289.9085 0001708  28.4663 250.6210 15.73174943  3935,6727.967,91.535,350.981,348.682,0.0
52310.0,STARLINK-3688,PAYLOAD,2022-05-08 22:00:00,15.73150297,0.0001713,53.2143,289.496,27.0663,4.2546,0.00047218,0.0006603,0.0,0 STARLINK-3688,1 52310U 22041BB  22128.91667824  .00066030  00000-0  47218-3 0  9998,2 52310  53.2143 289.4960 0001713  27.0663   4.2546 15.73150297  3379,6728.0369999999975,91.536,351.05400000000014,348.749,0.0
52310.0,STARLINK-3688,PAYLOAD,2022-05-09 14:00:01,15.73266216,0.0001709,53.2142,286.1959,34.6189,174.5752,-0.00059044,-0.00082911,0.0,0 STARLINK-3688,1 52310U 22041BB  22129.58335648 -.00082911  00000-0 -59044-3 0  9996,2 52310  53.2142 286.1959 0001709  34.6189 174.5752 15.73266216  4057,6727.706,91.529,350.721,348.422,0.0
52310.0,STARLINK-3688,PAYLOAD,2022-05-09 22:00:00,15.73184542,0.0001959,53.2135,284.5475,30.6764,267.4483,0.00073162,0.00103263,0.0,0 STARLINK-3688,1 52310U 22041BB  22129.91667824  .00103263  00000-0  73162-3 0  9996,2 52310  53.2135 284.5475 0001959  30.6764 267.4483 15.73184542  4106,6727.939,91.534,351.122,348.486,0.0
52310.0,STARLINK-3688,PAYLOAD,2022-05-10 06:00:00,15.73234811,0.0001664,53.2136,282.8956,33.55,353.5167,-0.00019077,-0.00027348,0.0,0 STARLINK-3688,1 52310U 22041BB  22130.25001157 -.00027348  00000-0 -19077-3 0  9992,2 52310  53.2136 282.8956 0001664  33.5500 353.5167 15.73234811  4151,6727.795999999999,91.531,350.78,348.541,0.0
52310.0,STARLINK-3688,PAYLOAD,2022-05-10 14:00:01,15.73240341,0.0001811,53.2139,281.247,31.5831,84.4304,-0.00093392,-0.00129919,0.0,0 STARLINK-3688,1 52310U 22041BB  22130.58334491 -.00129919  00000-0 -93392-3 0  9997,2 52310  53.2139 281.2470 0001811  31.5831  84.4304 15.73240341  3648,6727.78,91.531,350.86400000000015,348.427,0.0
52310.0,STARLINK-3688,PAYLOAD,2022-05-10 18:00:00,15.73182559,0.0001957,53.2139,280.423,29.5001,311.0002,-0.00042561,-0.00059889,0.0,0 STARLINK-3688,1 52310U 22041BB  22130.75001157 -.00059889  00000-0 -42561-3 0  9996,2 52310  53.2139 280.4230 0001957  29.5001 311.0002 15.73182559  4236,6727.945,91.534,351.12699999999984,348.49300000000005,0.0
52310.0,STARLINK-3688,PAYLOAD,2022-05-11 20:00:01,15.7319621,0.0002137,53.2149,275.0625,24.5511,334.8514,0.00069193,0.00097612,0.0,0 STARLINK-3688,1 52310U 22041BB  22131.83334491  .00097612  00000-0  69193-3 0  9990,2 52310  53.2149 275.0625 0002137  24.5511 334.8514 15.73196210  4406,6727.906,91.533,351.209,348.333,0.0
52310.0,STARLINK-3688,PAYLOAD,2022-05-11 22:00:00,15.73233777,0.0002144,53.2147,274.6498,24.5756,87.0563,0.00027441,0.00038124,0.0,0 STARLINK-3688,1 52310U 22041BB  22131.91667824  .00038124  00000-0  27441-3 0  9991,2 52310  53.2147 274.6498 0002144  24.5756  87.0563 15.73233777  1303,6727.799,91.531,351.106,348.221,0.0
52310.0,STARLINK-3688,PAYLOAD,2022-05-12 04:00:00,15.7326093,0.0001955,53.215,273.4107,27.4918,60.8855,-0.00028219,-0.00040142,0.0,0 STARLINK-3688,1 52310U 22041BB  22132.16667824 -.00040142  00000-0 -28219-3 0  9998,2 52310  53.2150 273.4107 0001955  27.4918  60.8855 15.73260930  4455,6727.721,91.53,350.902,348.271,0.0
52310.0,STARLINK-3688,PAYLOAD,2022-05-12 14:00:01,15.73293105,0.0002082,53.2151,271.3495,27.4233,262.1736,-0.0005351,-0.00075356,0.0,0 STARLINK-3688,1 52310U 22041BB  22132.58334491 -.00075356  00000-0 -53510-3 0  9992,2 52310  53.2151 271.3495 0002082  27.4233 262.1736 15.73293105  1301,6727.63,91.528,350.895,348.094,0.0
52310.0,STARLINK-3688,PAYLOAD,2022-05-12 20:00:01,15.73247296,0.0002222,53.2153,270.1132,20.2034,246.1755,-0.0001447,-0.00020922,0.0,0 STARLINK-3688,1 52310U 22041BB  22132.83334491 -.00020922  00000-0 -14470-3 0  9991,2 52310  53.2153 270.1132 0002222  20.2034 246.1755 15.73247296  4568,6727.76,91.53,351.12,348.13,0.0
52310.0,STARLINK-3688,PAYLOAD,2022-05-12 22:00:00,15.73240598,0.00022,53.215,269.7003,18.0488,0.5772,-9.1422e-05,-0.00013455,0.0,0 STARLINK-3688,1 52310U 22041BB  22132.91667824 -.00013455  00000-0 -91422-4 0  9995,2 52310  53.2150 269.7003 0002200  18.0488   0.5772 15.73240598  1308,6727.779,91.531,351.125,348.164,0.0
52310.0,STARLINK-3688,PAYLOAD,2022-05-13 14:00:01,15.73229708,0.0002239,53.2152,266.4007,20.9741,175.5432,-0.0007821,-0.00109125,0.0,0 STARLINK-3688,1 52310U 22041BB  22133.58334491 -.00109125  00000-0 -78210-3 0  9999,2 52310  53.2152 266.4007 0002239  20.9741 175.5432 15.73229708  4673,6727.81,91.531,351.182,348.1690000000001,0.0
52310.0,STARLINK-3688,PAYLOAD,2022-05-13 22:00:00,15.73143665,0.0002394,53.2145,264.7513,19.0759,266.3634,5.882100000000001e-05,7.622e-05,0.0,0 STARLINK-3688,1 52310U 22041BB  22133.91667824  .00007622  00000-0  58821-4 0  9999,2 52310  53.2145 264.7513 0002394  19.0759 266.3634 15.73143665  1305,6728.056,91.536,351.531,348.31,0.0
52310.0,STARLINK-3688,PAYLOAD,2022-05-14 06:00:00,15.73127251,0.0002189,53.2148,263.0999,23.3505,350.9601,0.00079112,0.0011155,0.0,0 STARLINK-3688,1 52310U 22041BB  22134.25001157  .00111550  00000-0  79112-3 0  9999,2 52310  53.2148 263.0999 0002189  23.3505 350.9601 15.73127251  4789,6728.103,91.537,351.44,348.495,0.0
52310.0,STARLINK-3688,PAYLOAD,2022-05-14 14:00:01,15.73224932,0.0002418,53.2152,261.4522,21.3699,81.84,0.00026395,0.00036627,0.0,0 STARLINK-3688,1 52310U 22041BB  22134.58334491  .00036627  00000-0  26395-3 0  9991,2 52310  53.2152 261.4522 0002418  21.3699  81.8400 15.73224932  1301,6727.824000000001,91.532,351.316,348.06199999999984,0.0
52310.0,STARLINK-3688,PAYLOAD,2022-05-14 22:00:00,15.73270596,0.0002528,53.2151,259.8027,17.5437,174.6351,-0.000372,-0.00052671,0.0,0 STARLINK-3688,1 52310U 22041BB  22134.91667824 -.00052671  00000-0 -37200-3 0  9993,2 52310  53.2151 259.8027 0002528  17.5437 174.6351 15.73270596  4889,6727.694,91.529,351.26,347.858,0.0
52310.0,STARLINK-3688,PAYLOAD,2022-05-15 14:00:01,15.73213541,0.0002602,53.2152,256.5035,18.2894,351.8631,-8.6506e-05,-0.00012753,0.0,0 STARLINK-3688,1 52310U 22041BB  22135.58335648 -.00012753  00000-0 -86506-4 0  9994,2 52310  53.2152 256.5035 0002602  18.2894 351.8631 15.73213541  1302,6727.857,91.532,351.472,347.971,0.0
52310.0,STARLINK-3688,PAYLOAD,2022-05-15 22:00:00,15.73247752,0.000274,53.2146,254.8538,17.1651,81.8688,-0.00036189,-0.00051217,0.0,0 STARLINK-3688,1 52310U 22041BB  22135.91667824 -.00051217  00000-0 -36189-3 0  9994,2 52310  53.2146 254.8538 0002740  17.1651  81.8688 15.73247752  5044,6727.759,91.53,351.467,347.781,0.0
